{"fetched_at":"2026-03-29T02:12:04Z","count":15717,"tles":[{"name":"STARLINK-35952","line1":"1 66520U 25265E   26087.60242436  .00023093  00000+0  84640-3 0  9990","line2":"2 66520  42.9983 171.3258 0001571 263.3262  96.7410 15.27567311 20008","category":"Starlink"}]}